{
  "type": "FeatureCollection",
  "features": [
    {
      "type": "Feature",
      "properties": {
        "norad_id": 43706,
        "name": "BEIDOU-3 M17 (C36)",
        "group": "beidou",
        "lat": 7.278734429302034,
        "lon": -166.14025689598168,
        "alt_km": 21519.328712898547,
        "timestamp": "2025-12-14T14:39:29.635905+00:00",
        "meta_object_name": "BEIDOU-3 M17 (C36)",
        "meta_object_id": "2018-093A",
        "meta_epoch": "2025-12-12T04:17:11.485824",
        "meta_mean_motion": 1.86228421,
        "meta_eccentricity": 0.00062217,
        "meta_inclination": 54.1726,
        "meta_ra_of_asc_node": 188.6407,
        "meta_arg_of_pericenter": 307.45,
        "meta_mean_anomaly": 230.9206,
        "meta_ephemeris_type": 0,
        "meta_classification_type": "U",
        "meta_norad_cat_id": 43706,
        "meta_element_set_no": 999,
        "meta_rev_at_epoch": 4805,
        "meta_bstar": 0,
        "meta_mean_motion_dot": 7.8e-07,
        "meta_mean_motion_ddot": 0,
        "tle_line1": "1 43706U 18093A   25346.17860516  .00000078  00000+0  00000+0 0  9998",
        "tle_line2": "2 43706  54.1726 188.6407 0006221 307.4500 230.9206  1.86228421 48054"
      },
      "geometry": {
        "type": "Point",
        "coordinates": [
          -166.14025689598168,
          7.278734429302034
        ]
      }
    },
    {
      "type": "Feature",
      "properties": {
        "norad_id": 43707,
        "name": "BEIDOU-3 M18 (C37)",
        "group": "beidou",
        "lat": 52.4785819884129,
        "lon": -61.64635082801454,
        "alt_km": 21528.0078412644,
        "timestamp": "2025-12-14T14:39:29.635916+00:00",
        "meta_object_name": "BEIDOU-3 M18 (C37)",
        "meta_object_id": "2018-093B",
        "meta_epoch": "2025-12-12T20:21:07.427232",
        "meta_mean_motion": 1.86226583,
        "meta_eccentricity": 0.00063344,
        "meta_inclination": 54.1732,
        "meta_ra_of_asc_node": 188.6097,
        "meta_arg_of_pericenter": 352.9631,
        "meta_mean_anomaly": 7.0898,
        "meta_ephemeris_type": 0,
        "meta_classification_type": "U",
        "meta_norad_cat_id": 43707,
        "meta_element_set_no": 999,
        "meta_rev_at_epoch": 4806,
        "meta_bstar": 0,
        "meta_mean_motion_dot": 8.8e-07,
        "meta_mean_motion_ddot": 0,
        "tle_line1": "1 43707U 18093B   25346.84800263  .00000088  00000+0  00000+0 0  9997",
        "tle_line2": "2 43707  54.1732 188.6097 0006334 352.9631   7.0898  1.86226583 48060"
      },
      "geometry": {
        "type": "Point",
        "coordinates": [
          -61.64635082801454,
          52.4785819884129
        ]
      }
    },
    {
      "type": "Feature",
      "properties": {
        "norad_id": 44204,
        "name": "BEIDOU-3 IGSO-1 (C38)",
        "group": "beidou",
        "lat": 14.249719263992334,
        "lon": 48.561583758609714,
        "alt_km": 35896.19173576085,
        "timestamp": "2025-12-14T14:39:29.635928+00:00",
        "meta_object_name": "BEIDOU-3 IGSO-1 (C38)",
        "meta_object_id": "2019-023A",
        "meta_epoch": "2025-11-19T14:15:02.708640",
        "meta_mean_motion": 1.00252177,
        "meta_eccentricity": 0.0026966,
        "meta_inclination": 58.4003,
        "meta_ra_of_asc_node": 39.8168,
        "meta_arg_of_pericenter": 221.2202,
        "meta_mean_anomaly": 126.9723,
        "meta_ephemeris_type": 0,
        "meta_classification_type": "U",
        "meta_norad_cat_id": 44204,
        "meta_element_set_no": 999,
        "meta_rev_at_epoch": 510,
        "meta_bstar": 0,
        "meta_mean_motion_dot": -2.26e-06,
        "meta_mean_motion_ddot": 0,
        "tle_line1": "1 44204U 19023A   25323.59378135 -.00000226  00000+0  00000+0 0  9994",
        "tle_line2": "2 44204  58.4003  39.8168 0026966 221.2202 126.9723  1.00252177  5102"
      },
      "geometry": {
        "type": "Point",
        "coordinates": [
          48.561583758609714,
          14.249719263992334
        ]
      }
    },
    {
      "type": "Feature",
      "properties": {
        "norad_id": 44231,
        "name": "BEIDOU-2 G8 (C01)",
        "group": "beidou",
        "lat": 0.40183230367630424,
        "lon": 87.94514612931157,
        "alt_km": 35803.65476557604,
        "timestamp": "2025-12-14T14:39:29.635943+00:00",
        "meta_object_name": "BEIDOU-2 G8 (C01)",
        "meta_object_id": "2019-027A",
        "meta_epoch": "2025-12-13T20:59:07.460160",
        "meta_mean_motion": 1.00267711,
        "meta_eccentricity": 0.00087425,
        "meta_inclination": 1.6651,
        "meta_ra_of_asc_node": 74.7136,
        "meta_arg_of_pericenter": 256.7501,
        "meta_mean_anomaly": 210.5987,
        "meta_ephemeris_type": 0,
        "meta_classification_type": "U",
        "meta_norad_cat_id": 44231,
        "meta_element_set_no": 999,
        "meta_rev_at_epoch": 2422,
        "meta_bstar": 0,
        "meta_mean_motion_dot": -2.32e-06,
        "meta_mean_motion_ddot": 0,
        "tle_line1": "1 44231U 19027A   25347.87439190 -.00000232  00000+0  00000+0 0  9991",
        "tle_line2": "2 44231   1.6651  74.7136 0008742 256.7501 210.5987  1.00267711 24227"
      },
      "geometry": {
        "type": "Point",
        "coordinates": [
          87.94514612931157,
          0.40183230367630424
        ]
      }
    },
    {
      "type": "Feature",
      "properties": {
        "norad_id": 44337,
        "name": "BEIDOU-3 IGSO-2 (C39)",
        "group": "beidou",
        "lat": -54.527741234124875,
        "lon": 57.9930262134094,
        "alt_km": 35714.952269936715,
        "timestamp": "2025-12-14T14:39:29.635955+00:00",
        "meta_object_name": "BEIDOU-3 IGSO-2 (C39)",
        "meta_object_id": "2019-035A",
        "meta_epoch": "2025-12-13T21:01:33.834720",
        "meta_mean_motion": 1.00271067,
        "meta_eccentricity": 0.00372664,
        "meta_inclination": 55.226,
        "meta_ra_of_asc_node": 160.4907,
        "meta_arg_of_pericenter": 202.3075,
        "meta_mean_anomaly": 154.8952,
        "meta_ephemeris_type": 0,
        "meta_classification_type": "U",
        "meta_norad_cat_id": 44337,
        "meta_element_set_no": 999,
        "meta_rev_at_epoch": 2380,
        "meta_bstar": 0,
        "meta_mean_motion_dot": -3.9e-07,
        "meta_mean_motion_ddot": 0,
        "tle_line1": "1 44337U 19035A   25347.87608605 -.00000039  00000+0  00000+0 0  9991",
        "tle_line2": "2 44337  55.2260 160.4907 0037266 202.3075 154.8952  1.00271067 23804"
      },
      "geometry": {
        "type": "Point",
        "coordinates": [
          57.9930262134094,
          -54.527741234124875
        ]
      }
    },
    {
      "type": "Feature",
      "properties": {
        "norad_id": 44542,
        "name": "BEIDOU-3 M24 (C46)",
        "group": "beidou",
        "lat": 41.31298852197132,
        "lon": -132.0081257851581,
        "alt_km": 21500.139014714423,
        "timestamp": "2025-12-14T14:39:29.635966+00:00",
        "meta_object_name": "BEIDOU-3 M24 (C46)",
        "meta_object_id": "2019-061A",
        "meta_epoch": "2025-12-11T20:16:59.930112",
        "meta_mean_motion": 1.86229199,
        "meta_eccentricity": 0.00095416,
        "meta_inclination": 54.4002,
        "meta_ra_of_asc_node": 189.0463,
        "meta_arg_of_pericenter": 24.13,
        "meta_mean_anomaly": 335.9744,
        "meta_ephemeris_type": 0,
        "meta_classification_type": "U",
        "meta_norad_cat_id": 44542,
        "meta_element_set_no": 999,
        "meta_rev_at_epoch": 4230,
        "meta_bstar": 0,
        "meta_mean_motion_dot": 7.3e-07,
        "meta_mean_motion_ddot": 0,
        "tle_line1": "1 44542U 19061A   25345.84513808  .00000073  00000+0  00000+0 0  9990",
        "tle_line2": "2 44542  54.4002 189.0463 0009541  24.1300 335.9744  1.86229199 42307"
      },
      "geometry": {
        "type": "Point",
        "coordinates": [
          -132.0081257851581,
          41.31298852197132
        ]
      }
    },
    {
      "type": "Feature",
      "properties": {
        "norad_id": 44543,
        "name": "BEIDOU-3 M23 (C45)",
        "group": "beidou",
        "lat": -26.323956981754325,
        "lon": 168.16361571893583,
        "alt_km": 21522.3403884711,
        "timestamp": "2025-12-14T14:39:29.635977+00:00",
        "meta_object_name": "BEIDOU-3 M23 (C45)",
        "meta_object_id": "2019-061B",
        "meta_epoch": "2025-12-12T05:53:39.748416",
        "meta_mean_motion": 1.86227487,
        "meta_eccentricity": 0.00061471,
        "meta_inclination": 54.3988,
        "meta_ra_of_asc_node": 189.0008,
        "meta_arg_of_pericenter": 23.325,
        "meta_mean_anomaly": 158.0349,
        "meta_ephemeris_type": 0,
        "meta_classification_type": "U",
        "meta_norad_cat_id": 44543,
        "meta_element_set_no": 999,
        "meta_rev_at_epoch": 4231,
        "meta_bstar": 0,
        "meta_mean_motion_dot": 7.9e-07,
        "meta_mean_motion_ddot": 0,
        "tle_line1": "1 44543U 19061B   25346.24559894  .00000079  00000+0  00000+0 0  9997",
        "tle_line2": "2 44543  54.3988 189.0008 0006147  23.3250 158.0349  1.86227487 42313"
      },
      "geometry": {
        "type": "Point",
        "coordinates": [
          168.16361571893583,
          -26.323956981754325
        ]
      }
    }
  ]
}